ECHOSTAR 18             
1 41592U 16039B   26115.87336475 -.00000296  00000+0  00000+0 0  9994
2 41592   0.0144 203.2223 0001511 194.5044  69.1828  1.00270316 36105
MUOS-5                  
1 41622U 16041A   26115.90245947 -.00000172  00000+0  00000+0 0  9991
2 41622   2.3162 300.7222 0194765 261.7254 231.4610  1.00270645 36568
TIANTONG-1 1            
1 41725U 16048A   26115.72979334 -.00000328  00000+0  00000+0 0  9999
2 41725   3.7515  42.9578 0006440  20.2339 154.6450  1.00269141 35748
JCSAT-16                
1 41729U 16050A   26115.95211968  .00000000  00000+0  00000+0 0  9999
2 41729   0.0168 232.3199 0001061 169.9442 298.4186  1.00267039 35545
USA 270                 
1 41744U 16052A   26111.25336792  .00000060  00000+0  00000+0 0  9996
2 41744   4.0526  77.8945 0003438 320.1673  82.4480  1.00347865 27569
USA 271                 
1 41745U 16052B   26110.88563977 -.00000360  00000+0  00000+0 0  9996
2 41745   4.0240  77.9674 0007317 143.7849  69.2738  1.00241576 27344
INTELSAT 36 (IS-36)     
1 41747U 16053A   26115.95808405 -.00000040  00000+0  00000+0 0  9995
2 41747   0.0150 329.9187 0001416   8.4872 288.9663  1.00279675 35435
INTELSAT 33E (IS-33E)   
1 41748U 16053B   26115.98165950  .00000002  00000+0  00000+0 0  9997
2 41748   1.4418  84.9032 0023582 191.4081 357.7664  1.00162858 35720
INSAT-3DR               
1 41752U 16054A   26115.98035965 -.00000090  00000+0  00000+0 0  9993
2 41752   0.1129  86.1844 0011660 195.1084 359.6159  1.00271318 35297
GSAT-18                 
1 41793U 16060A   26115.86692597 -.00000091  00000+0  00000+0 0  9993
2 41793   0.0636  82.3459 0005011 335.1078 182.5254  1.00271283 35005
SKY MUSTER 2 (NBN1B)    
1 41794U 16060B   26115.88096604 -.00000258  00000+0  00000+0 0  9998
2 41794   0.0174 255.5205 0001645 130.8813 289.4305  1.00272149 34995
HIMAWARI-9              
1 41836U 16064A   26115.95151301 -.00000288  00000+0  00000+0 0  9996
2 41836   0.0351 130.9871 0000849 265.1317 301.1521  1.00273826 34681
SHIJIAN-17 (SJ-17)      
1 41838U 16065A   26115.70067323 -.00000289  00000+0  00000+0 0  9993
2 41838   5.6221  73.2190 0001468 349.0864 357.8436  0.99864254 34670
YZ-2 R/B                
1 41840U 16065C   26114.94394578 -.00000144  00000+0  00000+0 0  9996
2 41840   9.2329  67.0998 0465385 230.9929 124.7423  0.93473595 32359
GOES 16                 
1 41866U 16071A   26115.90289280 -.00000104  00000+0  00000+0 0  9997
2 41866   0.2104  85.2605 0001541 248.4731 100.5078  1.00271074 34572
TIANLIAN 1-04           
1 41869U 16072A   26115.67345977  .00000018  00000+0  00000+0 0  9994
2 41869   0.7318  83.0849 0040098  92.1910  97.6350  1.00272240 34773
WGS F8 (USA 272)        
1 41879U 16075A   26115.58794660 -.00000217  00000+0  00000+0 0  9997
2 41879   0.0146 278.5514 0000479 235.5621  60.9452  1.00271281 34294
